[{"OBJECT_NAME":"VSP RF A1","OBJECT_ID":"2024-043AP","EPOCH":"2026-03-07T00:44:15.345024","MEAN_MOTION":15.26179596,"ECCENTRICITY":0.00094313,"INCLINATION":97.5247,"RA_OF_ASC_NODE":201.5379,"ARG_OF_PERICENTER":234.6315,"MEAN_ANOMALY":125.4042,"EPHEMERIS_TYPE":0,"CLASSIFICATION_TYPE":"U","NORAD_CAT_ID":59135,"ELEMENT_SET_NO":999,"REV_AT_EPOCH":11140,"BSTAR":2.5198753e-5,"MEAN_MOTION_DOT":5.77e-6,"MEAN_MOTION_DDOT":0},{"OBJECT_NAME":"STARLINK-36509","OBJECT_ID":"2026-005E","EPOCH":"2026-03-09T22:00:01.999584","MEAN_MOTION":15.27549973,"ECCENTRICITY":0.00010562,"INCLINATION":43.0014,"RA_OF_ASC_NODE":236.5508,"ARG_OF_PERICENTER":303.7669,"MEAN_ANOMALY":32.8883,"EPHEMERIS_TYPE":0,"CLASSIFICATION_TYPE":"U","NORAD_CAT_ID":67408,"ELEMENT_SET_NO":999,"REV_AT_EPOCH":584,"BSTAR":0.0026600564,"MEAN_MOTION_DOT":0.00073602,"MEAN_MOTION_DDOT":0}]
